*******************************************************************************
Ephemeris / WWW_USER Mon Jul 15 19:23:58 2024 Pasadena, USA      / Horizons    
*******************************************************************************
Target body name: (2018 RB1)                      {source: JPL#5}
Center body name: Earth (399)                     {source: DE441}
Center-site name: Gemini South Obs., Cerro Pachon
*******************************************************************************
Start time      : A.D. 2018-Nov-28 23:37:00.0000 UT      
Stop  time      : A.D. 2018-Nov-29 09:24:00.0000 UT      
Step-size       : 1 minutes
*******************************************************************************
Target pole/equ : undefined
Target radii    : undefined                                                    
Center geodetic : 289.2634, -30.2406227, 2.71233  {E-lon(deg),Lat(deg),Alt(km)}
Center cylindric: 289.2634,5517.21435,-3194.81213 {E-lon(deg),Dxy(km),Dz(km)}
Center pole/equ : ITRF93                          {East-longitude positive}
Center radii    : 6378.137, 6378.137, 6356.752 km {Equator_a, b, pole_c}       
Target primary  : Sun
Vis. interferer : MOON (R_eq= 1737.400) km        {source: DE441}
Rel. light bend : Sun                             {source: DE441}
Rel. lght bnd GM: 1.3271E+11 km^3/s^2                                          
Small-body perts: Yes                             {source: SB441-N16}
Atmos refraction: NO (AIRLESS)
RA format       : HMS
Time format     : CAL 
Calendar mode   : Mixed Julian/Gregorian
RTS-only print  : NO       
EOP file        : eop.240715.p241008                                           
EOP coverage    : DATA-BASED 1962-JAN-20 TO 2024-JUL-15. PREDICTS-> 2024-OCT-07
Units conversion: 1 au= 149597870.700 km, c= 299792.458 km/s, 1 day= 86400.0 s 
Table cut-offs 1: Elevation (-90.0deg=NO ),Airmass (>38.000=NO), Daylight (YES)
Table cut-offs 2: Solar elongation (  0.0,180.0=NO ),Local Hour Angle( 0.0=NO )
Table cut-offs 3: RA/DEC angular rate (     0.0=NO )                           
*******************************************************************************
Initial IAU76/J2000 heliocentric ecliptic osculating elements (au, days, deg.):
  EPOCH=  2458368.5 ! 2018-Sep-07.00 (TDB)         Residual RMS= .299          
   EC= .2816093255492492   QR= .7991213126369837   TP= 2458438.7854507864      
   OM= 166.9631715555783   W=  267.8210074013559   IN= 5.127543488636634       
  Equivalent ICRF heliocentric cartesian coordinates (au, au/d):
   X= 9.883258176612897E-01  Y=-2.654573099408967E-01  Z=-1.095366816313374E-01
  VX= 1.112505236628486E-04 VY= 1.667631342697191E-02 VZ= 5.559084906068471E-03
Asteroid physical parameters (km, seconds, rotational period in hours):        
   GM= n.a.                RAD= n.a.               ROTPER= n.a.                
   H= 27.9                 G= .150                 B-V= n.a.                   
                           ALBEDO= n.a.            STYP= n.a.                  
*******************************************************************************
 Date__(UT)__HR:MN     R.A._________(ICRF)_________DEC
******************************************************
$$SOE
 2018-Nov-29 07:49  m  12 30 48.701448 -12 21 59.40211
 2018-Nov-29 07:50  m  12 30 48.815671 -12 21 59.69185
 2018-Nov-29 07:51  m  12 30 48.929875 -12 21 59.98158
 2018-Nov-29 07:52  m  12 30 49.044059 -12 22 00.27129
 2018-Nov-29 07:53  m  12 30 49.158223 -12 22 00.56099
 2018-Nov-29 07:54  m  12 30 49.272368 -12 22 00.85067
 2018-Nov-29 07:55  m  12 30 49.386494 -12 22 01.14033
 2018-Nov-29 07:56  m  12 30 49.500600 -12 22 01.42997
 2018-Nov-29 07:57  m  12 30 49.614687 -12 22 01.71960
 2018-Nov-29 07:58  m  12 30 49.728755 -12 22 02.00921
 2018-Nov-29 07:59  m  12 30 49.842803 -12 22 02.29880
 2018-Nov-29 08:00 Am  12 30 49.956832 -12 22 02.58838
 2018-Nov-29 08:01 Am  12 30 50.070842 -12 22 02.87794
 2018-Nov-29 08:02 Am  12 30 50.184832 -12 22 03.16747
 2018-Nov-29 08:03 Am  12 30 50.298803 -12 22 03.45699
 2018-Nov-29 08:04 Am  12 30 50.412755 -12 22 03.74650
 2018-Nov-29 08:05 Am  12 30 50.526688 -12 22 04.03598
 2018-Nov-29 08:06 Am  12 30 50.640602 -12 22 04.32544
 2018-Nov-29 08:07 Am  12 30 50.754497 -12 22 04.61488
 2018-Nov-29 08:08 Am  12 30 50.868373 -12 22 04.90430
 2018-Nov-29 08:09 Am  12 30 50.982230 -12 22 05.19370
 2018-Nov-29 08:10 Am  12 30 51.096068 -12 22 05.48309
 2018-Nov-29 08:11 Am  12 30 51.209887 -12 22 05.77245
 2018-Nov-29 08:12 Am  12 30 51.323687 -12 22 06.06178
 2018-Nov-29 08:13 Am  12 30 51.437468 -12 22 06.35110
 2018-Nov-29 08:14 Am  12 30 51.551230 -12 22 06.64040
 2018-Nov-29 08:15 Am  12 30 51.664974 -12 22 06.92967
 2018-Nov-29 08:16 Am  12 30 51.778699 -12 22 07.21892
 2018-Nov-29 08:17 Am  12 30 51.892405 -12 22 07.50815
 2018-Nov-29 08:18 Am  12 30 52.006092 -12 22 07.79736
 2018-Nov-29 08:19 Am  12 30 52.119761 -12 22 08.08654
 2018-Nov-29 08:20 Am  12 30 52.233411 -12 22 08.37570
 2018-Nov-29 08:21 Am  12 30 52.347043 -12 22 08.66484
 2018-Nov-29 08:22 Am  12 30 52.460656 -12 22 08.95395
 2018-Nov-29 08:23 Am  12 30 52.574251 -12 22 09.24304
 2018-Nov-29 08:24 Am  12 30 52.687827 -12 22 09.53210
 2018-Nov-29 08:25 Am  12 30 52.801385 -12 22 09.82114
 2018-Nov-29 08:26 Am  12 30 52.914924 -12 22 10.11016
 2018-Nov-29 08:27 Am  12 30 53.028446 -12 22 10.39915
 2018-Nov-29 08:28 Am  12 30 53.141948 -12 22 10.68811
 2018-Nov-29 08:29 Am  12 30 53.255433 -12 22 10.97705
 2018-Nov-29 08:30 Am  12 30 53.368900 -12 22 11.26596
 2018-Nov-29 08:31 Am  12 30 53.482348 -12 22 11.55485
 2018-Nov-29 08:32 Am  12 30 53.595778 -12 22 11.84371
 2018-Nov-29 08:33 Am  12 30 53.709190 -12 22 12.13254
 2018-Nov-29 08:34 Am  12 30 53.822584 -12 22 12.42135
 2018-Nov-29 08:35 Nm  12 30 53.935960 -12 22 12.71013
 2018-Nov-29 08:36 Nm  12 30 54.049318 -12 22 12.99888
 2018-Nov-29 08:37 Nm  12 30 54.162659 -12 22 13.28761
 2018-Nov-29 08:38 Nm  12 30 54.275981 -12 22 13.57630
 2018-Nov-29 08:39 Nm  12 30 54.389286 -12 22 13.86497
 2018-Nov-29 08:40 Nm  12 30 54.502572 -12 22 14.15361
 2018-Nov-29 08:41 Nm  12 30 54.615841 -12 22 14.44222
 2018-Nov-29 08:42 Nm  12 30 54.729093 -12 22 14.73080
 2018-Nov-29 08:43 Nm  12 30 54.842327 -12 22 15.01936
 2018-Nov-29 08:44 Nm  12 30 54.955543 -12 22 15.30788
 2018-Nov-29 08:45 Nm  12 30 55.068742 -12 22 15.59637
 2018-Nov-29 08:46 Nm  12 30 55.181923 -12 22 15.88484
 2018-Nov-29 08:47 Nm  12 30 55.295087 -12 22 16.17327
 2018-Nov-29 08:48 Nm  12 30 55.408233 -12 22 16.46167
 2018-Nov-29 08:49 Nm  12 30 55.521362 -12 22 16.75004
 2018-Nov-29 08:50 Nm  12 30 55.634474 -12 22 17.03839
 2018-Nov-29 08:51 Nm  12 30 55.747568 -12 22 17.32669
 2018-Nov-29 08:52 Nm  12 30 55.860646 -12 22 17.61497
 2018-Nov-29 08:53 Nm  12 30 55.973706 -12 22 17.90322
 2018-Nov-29 08:54 Nm  12 30 56.086749 -12 22 18.19144
 2018-Nov-29 08:55 Nm  12 30 56.199775 -12 22 18.47962
 2018-Nov-29 08:56 Nm  12 30 56.312784 -12 22 18.76777
 2018-Nov-29 08:57 Nm  12 30 56.425776 -12 22 19.05589
 2018-Nov-29 08:58 Nm  12 30 56.538751 -12 22 19.34397
 2018-Nov-29 08:59 Nm  12 30 56.651709 -12 22 19.63202
 2018-Nov-29 09:00 Nm  12 30 56.764651 -12 22 19.92004
 2018-Nov-29 09:01 Nm  12 30 56.877576 -12 22 20.20802
 2018-Nov-29 09:02 Nm  12 30 56.990484 -12 22 20.49598
 2018-Nov-29 09:03 Nm  12 30 57.103375 -12 22 20.78389
 2018-Nov-29 09:04 Nm  12 30 57.216250 -12 22 21.07177
 2018-Nov-29 09:05 Nm  12 30 57.329108 -12 22 21.35962
 2018-Nov-29 09:06 Nm  12 30 57.441950 -12 22 21.64743
 2018-Nov-29 09:07 Cm  12 30 57.554776 -12 22 21.93521
 2018-Nov-29 09:08 Cm  12 30 57.667585 -12 22 22.22296
 2018-Nov-29 09:09 Cm  12 30 57.780378 -12 22 22.51066
 2018-Nov-29 09:10 Cm  12 30 57.893154 -12 22 22.79833
 2018-Nov-29 09:11 Cm  12 30 58.005915 -12 22 23.08597
 2018-Nov-29 09:12 Cm  12 30 58.118659 -12 22 23.37357
 2018-Nov-29 09:13 Cm  12 30 58.231387 -12 22 23.66113
 2018-Nov-29 09:14 Cm  12 30 58.344099 -12 22 23.94866
 2018-Nov-29 09:15 Cm  12 30 58.456795 -12 22 24.23615
 2018-Nov-29 09:16 Cm  12 30 58.569475 -12 22 24.52360
 2018-Nov-29 09:17 Cm  12 30 58.682140 -12 22 24.81101
 2018-Nov-29 09:18 Cm  12 30 58.794788 -12 22 25.09839
 2018-Nov-29 09:19 Cm  12 30 58.907421 -12 22 25.38573
 2018-Nov-29 09:20 Cm  12 30 59.020038 -12 22 25.67303
 2018-Nov-29 09:21 Cm  12 30 59.132640 -12 22 25.96029
 2018-Nov-29 09:22 Cm  12 30 59.245226 -12 22 26.24752
 2018-Nov-29 09:23 Cm  12 30 59.357796 -12 22 26.53470
 2018-Nov-29 09:24 Cm  12 30 59.470351 -12 22 26.82185
